<?xml version="1.0" encoding="UTF-8"?>
<gpx version="1.1" creator="GradeFinder">
  <trk>
    <name>Twin Peaks Tie Route</name>
    <trkseg>
      <trkpt lat="37.774900" lon="-122.419400"><ele>100.00</ele></trkpt>
      <trkpt lat="37.775900" lon="-122.419400"><ele>100.00</ele></trkpt>
      <trkpt lat="37.776900" lon="-122.419400"><ele>100.00</ele></trkpt>
      <trkpt lat="37.777900" lon="-122.419400"><ele>100.00</ele></trkpt>
      <trkpt lat="37.778900" lon="-122.419400"><ele>100.00</ele></trkpt>
      <trkpt lat="37.779900" lon="-122.419400"><ele>110.00</ele></trkpt>
      <trkpt lat="37.780900" lon="-122.419400"><ele>120.00</ele></trkpt>
      <trkpt lat="37.781900" lon="-122.419400"><ele>130.00</ele></trkpt>
      <trkpt lat="37.782900" lon="-122.419400"><ele>140.00</ele></trkpt>
      <trkpt lat="37.783900" lon="-122.419400"><ele>150.00</ele></trkpt>
      <trkpt lat="37.784900" lon="-122.419400"><ele>160.00</ele></trkpt>
      <trkpt lat="37.785900" lon="-122.419400"><ele>170.00</ele></trkpt>
      <trkpt lat="37.786900" lon="-122.419400"><ele>180.00</ele></trkpt>
      <trkpt lat="37.787900" lon="-122.419400"><ele>190.00</ele></trkpt>
      <trkpt lat="37.788900" lon="-122.419400"><ele>200.00</ele></trkpt>
      <trkpt lat="37.789900" lon="-122.419400"><ele>200.00</ele></trkpt>
      <trkpt lat="37.790900" lon="-122.419400"><ele>200.00</ele></trkpt>
      <trkpt lat="37.791900" lon="-122.419400"><ele>200.00</ele></trkpt>
      <trkpt lat="37.792900" lon="-122.419400"><ele>200.00</ele></trkpt>
      <trkpt lat="37.793900" lon="-122.419400"><ele>200.00</ele></trkpt>
      <trkpt lat="37.794900" lon="-122.419400"><ele>190.00</ele></trkpt>
      <trkpt lat="37.795900" lon="-122.419400"><ele>180.00</ele></trkpt>
      <trkpt lat="37.796900" lon="-122.419400"><ele>170.00</ele></trkpt>
      <trkpt lat="37.797900" lon="-122.419400"><ele>160.00</ele></trkpt>
      <trkpt lat="37.798900" lon="-122.419400"><ele>150.00</ele></trkpt>
      <trkpt lat="37.799900" lon="-122.419400"><ele>140.00</ele></trkpt>
      <trkpt lat="37.800900" lon="-122.419400"><ele>130.00</ele></trkpt>
      <trkpt lat="37.801900" lon="-122.419400"><ele>120.00</ele></trkpt>
      <trkpt lat="37.802900" lon="-122.419400"><ele>110.00</ele></trkpt>
      <trkpt lat="37.803900" lon="-122.419400"><ele>100.00</ele></trkpt>
      <trkpt lat="37.804900" lon="-122.419400"><ele>100.00</ele></trkpt>
      <trkpt lat="37.805900" lon="-122.419400"><ele>100.00</ele></trkpt>
      <trkpt lat="37.806900" lon="-122.419400"><ele>100.00</ele></trkpt>
      <trkpt lat="37.807900" lon="-122.419400"><ele>100.00</ele></trkpt>
      <trkpt lat="37.808900" lon="-122.419400"><ele>100.00</ele></trkpt>
      <trkpt lat="37.809900" lon="-122.419400"><ele>110.00</ele></trkpt>
      <trkpt lat="37.810900" lon="-122.419400"><ele>120.00</ele></trkpt>
      <trkpt lat="37.811900" lon="-122.419400"><ele>130.00</ele></trkpt>
      <trkpt lat="37.812900" lon="-122.419400"><ele>140.00</ele></trkpt>
      <trkpt lat="37.813900" lon="-122.419400"><ele>150.00</ele></trkpt>
      <trkpt lat="37.814900" lon="-122.419400"><ele>160.00</ele></trkpt>
      <trkpt lat="37.815900" lon="-122.419400"><ele>170.00</ele></trkpt>
      <trkpt lat="37.816900" lon="-122.419400"><ele>180.00</ele></trkpt>
      <trkpt lat="37.817900" lon="-122.419400"><ele>190.00</ele></trkpt>
      <trkpt lat="37.818900" lon="-122.419400"><ele>200.00</ele></trkpt>
      <trkpt lat="37.819900" lon="-122.419400"><ele>200.00</ele></trkpt>
      <trkpt lat="37.820900" lon="-122.419400"><ele>200.00</ele></trkpt>
      <trkpt lat="37.821900" lon="-122.419400"><ele>200.00</ele></trkpt>
      <trkpt lat="37.822900" lon="-122.419400"><ele>200.00</ele></trkpt>
      <trkpt lat="37.823900" lon="-122.419400"><ele>200.00</ele></trkpt>
      <trkpt lat="37.824900" lon="-122.419400"><ele>190.00</ele></trkpt>
      <trkpt lat="37.825900" lon="-122.419400"><ele>180.00</ele></trkpt>
      <trkpt lat="37.826900" lon="-122.419400"><ele>170.00</ele></trkpt>
      <trkpt lat="37.827900" lon="-122.419400"><ele>160.00</ele></trkpt>
      <trkpt lat="37.828900" lon="-122.419400"><ele>150.00</ele></trkpt>
      <trkpt lat="37.829900" lon="-122.419400"><ele>140.00</ele></trkpt>
      <trkpt lat="37.830900" lon="-122.419400"><ele>130.00</ele></trkpt>
      <trkpt lat="37.831900" lon="-122.419400"><ele>120.00</ele></trkpt>
      <trkpt lat="37.832900" lon="-122.419400"><ele>110.00</ele></trkpt>
      <trkpt lat="37.833900" lon="-122.419400"><ele>100.00</ele></trkpt>
      <trkpt lat="37.834900" lon="-122.419400"><ele>100.00</ele></trkpt>
      <trkpt lat="37.835900" lon="-122.419400"><ele>100.00</ele></trkpt>
      <trkpt lat="37.836900" lon="-122.419400"><ele>100.00</ele></trkpt>
      <trkpt lat="37.837900" lon="-122.419400"><ele>100.00</ele></trkpt>
      <trkpt lat="37.838900" lon="-122.419400"><ele>100.00</ele></trkpt>
    </trkseg>
  </trk>
</gpx>
